STARLINK-34542          
1 65890U 25224J   25304.25002315 -.00021244  00000+0 -37516-3 0  9994
2 65890  53.1589 254.6317 0001347  85.3964  62.1298 15.49291757  5079
STARLINK-34791          
1 65891U 25224K   25304.25002315 -.00013633  00000+0 -23769-3 0  9993
2 65891  53.1599 254.3788 0001304  84.3849 185.0793 15.49283604  5071
STARLINK-34853          
1 65892U 25224L   25304.25002315  .00149098  00000+0  26453-2 0  9999
2 65892  53.1589 254.6240 0001383  90.8648  60.4425 15.49230371  5007
STARLINK-34921          
1 65893U 25224M   25304.25002315 -.00105599  00000+0 -19139-2 0  9993
2 65893  53.1600 254.3668 0001708 100.1376 175.0426 15.49343201  5075
STARLINK-34672          
1 65894U 25224N   25304.25002315 -.00101604  00000+0 -18405-2 0  9992
2 65894  53.1600 254.3749 0001801 101.9957 169.3558 15.49338457  5073
STARLINK-34898          
1 65895U 25224P   25304.25002315 -.00088353  00000+0 -15971-2 0  9993
2 65895  53.1599 254.3583 0001911 102.1422 176.8833 15.49331233  5073
STARLINK-34906          
1 65896U 25224Q   25304.25002315 -.00109351  00000+0 -19832-2 0  9996
2 65896  53.1599 254.3626 0001523  99.5584 177.5437 15.49343568  5071
STARLINK-34934          
1 65897U 25224R   25304.25002315 -.00008134  00000+0 -13844-3 0  9992
2 65897  53.1599 254.3506 0001419  96.7716 186.1045 15.49286235  5022
STARLINK-34936          
1 65898U 25224S   25304.25002315  .00119813  00000+0  21380-2 0  9991
2 65898  53.1599 254.3547 0001570 101.0179 179.9934 15.49194395  5076
STARLINK-35272          
1 65899U 25224T   25304.25002315  .00146066  00000+0  25980-2 0  9992
2 65899  53.1600 254.3453 0001265  70.9038 213.9567 15.49172264  5066
STARLINK-35264          
1 65900U 25224U   25304.25002315  .00126671  00000+0  22583-2 0  9991
2 65900  53.1601 254.3417 0001308  79.8719 206.8885 15.49190247  5067
STARLINK-35249          
1 65901U 25224V   25304.25002315 -.00023249  00000+0 -41142-3 0  9994
2 65901  53.1599 254.3384 0001377  99.8278 188.7987 15.49292352  5055
